GLOBALSTAR M023 [+]     
1 25621U 99004A   23308.57036450  .00000037  00000+0  78520-3 0  9998
2 25621  52.0123  51.7781 0009125 257.3307 116.1090 12.62446178141133
GLOBALSTAR M040 [-]     
1 25622U 99004B   23308.55551260 -.00000059  00000+0  25197-3 0  9995
2 25622  51.9932  55.1163 0001100 143.4295 230.7207 12.61958546140686
GLOBALSTAR M036 [-]     
1 25623U 99004C   23308.43581539  .00000037  00000+0  17536-2 0  9997
2 25623  51.9997 357.3468 0010782   4.1913   9.0374 11.86557165108852
GLOBALSTAR M038 [-]     
1 25624U 99004D   23308.48835142 -.00000061  00000+0  27802-3 0  9991
2 25624  51.9989 332.6547 0001514 262.3102 263.5611 12.32487091129530
GLOBALSTAR M022 [-]     
1 25649U 99012A   23308.57132510 -.00000048  00000+0  46135-3 0  9991
2 25649  52.0027  96.4220 0003564  87.7628 349.2443 12.02471933105325
GLOBALSTAR M041 [-]     
1 25650U 99012B   23308.42474151 -.00000045  00000+0  52340-3 0  9999
2 25650  52.0030 320.2660 0001829 230.9857 129.0817 11.96645750107553
GLOBALSTAR M046 [-]     
1 25651U 99012C   23308.49807726 -.00000006  00000+0  91692-3 0  9995
2 25651  52.0063  68.3140 0002880 142.2058 296.9730 12.09379295112196
GLOBALSTAR M037 [+]     
1 25652U 99012D   23308.39995789 -.00000078  00000+0  14100-3 0  9990
2 25652  51.9992 183.1467 0001697 350.5707 180.3398 12.62387283136652
